{
  "norad_id": 41773,
  "name": "SKYSAT-C2",
  "history": [
    {
      "epoch": "2026-03-28T19:29:40.293888Z",
      "apogee_km": 447.5862943682978,
      "perigee_km": 443.40163444306563,
      "latitude_deg": 5.725795381241513e-05,
      "longitude_deg": -5.638345847124354,
      "height_km": 446.6737521201767,
      "semi_major_axis_km": 6823.630964405681,
      "eccentricity": 0.00030663,
      "inclination_deg": 97.0259,
      "raan_deg": 113.0069,
      "arg_perigee_deg": 21.5261,
      "mean_anomaly_deg": 338.6115,
      "mean_motion_rev_day": 15.4020832
    },
    {
      "epoch": "2026-03-29T03:17:26.742912Z",
      "apogee_km": 447.5265185397666,
      "perigee_km": 443.40369814590485,
      "latitude_deg": 2.910243117250105e-05,
      "longitude_deg": -122.59006002863975,
      "height_km": 446.65827309606516,
      "semi_major_axis_km": 6823.602108342835,
      "eccentricity": 0.0003021,
      "inclination_deg": 97.0257,
      "raan_deg": 113.3189,
      "arg_perigee_deg": 20.3168,
      "mean_anomaly_deg": 339.8199,
      "mean_motion_rev_day": 15.4021809
    },
    {
      "epoch": "2026-03-30T04:14:17.997216Z",
      "apogee_km": 447.32200363471475,
      "perigee_km": 443.3930354903505,
      "latitude_deg": -3.933213790370011e-06,
      "longitude_deg": -136.82957525744453,
      "height_km": 446.6074905806183,
      "semi_major_axis_km": 6823.494519562532,
      "eccentricity": 0.0002879,
      "inclination_deg": 97.0252,
      "raan_deg": 114.3175,
      "arg_perigee_deg": 17.1873,
      "mean_anomaly_deg": 342.9471,
      "mean_motion_rev_day": 15.40254518
    }
  ]
}